{
  "type": "Topology",
  "arcs": [
    [
      [6127, 43356],
      [-40, -50],
      [-27, 40],
      [11, 83]
    ],
    [
      [6071, 43429],
      [17, 17],
      [38, -42],
      [7, -39]
    ],
    [
      [6133, 43365],
      [-6, -9]
    ],
    [
      [1412, 42140],
      [22, -111],
      [45, 7],
      [16, -128],
      [54, -130],
      [38, -51],
      [10, -57],
      [56, -96],
      [10, -118],
      [88, -83],
      [102, 23],
      [80, -62],
      [15, -110],
      [56, -14],
      [46, 12],
      [27, -59],
      [76, -9],
      [26, -71],
      [70, -21]
    ],
    [
      [2249, 41062],
      [2, -1]
    ],
    [
      [2251, 41061],
      [-1, -867],
      [54, -89],
      [37, -144],
      [-72, 4],
      [-39, -15],
      [-100, -67],
      [-39, -75],
      [0, -33],
      [-55, -55],
      [-8, -71],
      [-35, -33],
      [-34, -77],
      [-45, 1],
      [-64, -64],
      [2, -26],
      [-59, -109],
      [-81, -58],
      [-26, -3],
      [-67, -50],
      [-41, -53],
      [-13, -54],
      [21, -103],
      [-42, -55],
      [-2, -99],
      [-44, -41],
      [2, -44],
      [-100, -41],
      [-48, 12],
      [-41, -55],
      [-79, -2],
      [-48, -43],
      [-20, -60],
      [-36, -26],
      [8, -64],
      [27, -73],
      [-43, -96],
      [-39, -31],
      [-47, 5],
      [-38, 37],
      [-128, 18],
      [-30, -10]
    ],
    [
      [838, 38352],
      [-3, 108],
      [-26, 56],
      [-12, 74],
      [48, 78],
      [-5, 93],
      [12, 68],
      [35, -15],
      [31, 61],
      [-11, 54],
      [-55, 49],
      [10, 74],
      [39, 16],
      [19, 114],
      [23, 47],
      [-39, 55],
      [-8, 92],
      [5, 107],
      [77, -40],
      [17, 43],
      [-5, 71],
      [15, 94],
      [24, 70],
      [-19, 104],
      [10, 82],
      [-15, 92],
      [54, 43],
      [23, 55],
      [56, 38],
      [66, -7],
      [9, 76],
      [30, 59],
      [-6, 42],
      [-56, 84],
      [-30, 360],
      [-57, 253],
      [31, 47],
      [4, 93],
      [-31, 67],
      [4, 84],
      [28, 54],
      [-20, 165],
      [28, 56],
      [-15, 86],
      [9, 68],
      [40, 29],
      [-19, 57],
      [8, 112],
      [31, -22],
      [25, 25],
      [4, 59],
      [36, -25],
      [44, 30],
      [-11, 92],
      [70, 101],
      [14, -28],
      [37, 47]
    ],
    [
      [1411, 42199],
      [1, -59]
    ],
    [
      [2740, 45539],
      [47, -34],
      [87, -17]
    ],
    [
      [2874, 45488],
      [123, -61],
      [20, 52],
      [54, -25],
      [71, 58],
      [35, -17],
      [47, 17]
    ],
    [
      [3224, 45512],
      [55, -7],
      [123, -111],
      [27, -38],
      [15, -126],
      [-2, -61],
      [61, 10],
      [52, -12],
      [2, -121],
      [14, -69],
      [-15, -40],
      [-30, -297],
      [-28, -106],
      [-29, -44],
      [14, -592],
      [1, -834]
    ],
    [
      [3484, 43064],
      [-1, -771],
      [-599, 1]
    ],
    [
      [2884, 42294],
      [6, 115],
      [38, 244],
      [18, 312],
      [-26, 135],
      [-6, 107],
      [-35, 58],
      [-31, 136],
      [-10, 111],
      [-22, 77],
      [4, 68],
      [35, 87],
      [1, 96],
      [18, 30],
      [-55, 98],
      [-27, 22],
      [-4, 50],
      [-26, 29],
      [-58, 156],
      [-22, 94],
      [-12, 226],
      [2, 94],
      [-21, 93],
      [26, 99],
      [-23, 60],
      [-42, 258]
    ],
    [
      [2612, 45149],
      [21, 47],
      [-36, 36],
      [2, 212],
      [-6, 85],
      [54, -10],
      [41, 36],
      [52, -16]
    ],
    [
      [4813, 48559],
      [261, 1],
      [847, -2],
      [1, -52]
    ],
    [
      [5922, 48506],
      [-25, -53],
      [-46, 5],
      [-18, -74],
      [9, -167],
      [15, -45],
      [-20, -65],
      [8, -72],
      [-32, -99],
      [1, -65],
      [-21, -79],
      [4, -42],
      [-22, -45],
      [-35, -20],
      [-24, -84],
      [-36, -17],
      [-8, -78],
      [-33, -40],
      [10, -51],
      [-15, -248],
      [-17, -52],
      [22, -47],
      [15, -83],
      [-20, -82],
      [-8, -97],
      [-29, -31],
      [16, -49]
    ],
    [
      [5613, 46726],
      [-13, -81],
      [21, -46],
      [2, -75],
      [-13, -39],
      [18, -52],
      [-26, -44],
      [-14, -84],
      [-33, -51],
      [-23, -90],
      [-34, -49],
      [-15, -93],
      [-40, -41],
      [7, -44],
      [-22, -76],
      [-40, -68],
      [-34, -13],
      [0, -48],
      [-53, -70],
      [-42, -8],
      [-40, -81],
      [8, -78],
      [-25, -43],
      [25, -79],
      [-17, -65],
      [11, -65],
      [-19, -79],
      [-2, -96],
      [-20, -40],
      [21, -129],
      [3, -80],
      [22, -45],
      [-7, -53],
      [68, -173],
      [43, -54],
      [43, -14],
      [7, -46]
    ],
    [
      [5380, 44434],
      [-27, -115],
      [-30, -43],
      [-1, -61],
      [-20, -70],
      [-36, -9],
      [-103, 83],
      [-39, -38],
      [-6, -52],
      [-308, -572],
      [-455, 0]
    ],
    [
      [4355, 43557],
      [376, 991],
      [53, 89],
      [6, 82],
      [-9, 100],
      [-25, 62],
      [-22, 157],
      [-38, 115],
      [-10, 66],
      [-42, 55],
      [-21, 61],
      [12, 101],
      [-22, 80],
      [2, 112],
      [-9, 32],
      [46, 74],
      [110, 675],
      [-113, 206]
    ],
    [
      [4649, 46615],
      [164, 1944]
    ],
    [
      [2849, 45520],
      [-30, 55],
      [-25, 137],
      [-33, 0],
      [-59, 197],
      [14, 234],
      [-20, 53],
      [14, 78],
      [-18, 16],
      [-61, 157],
      [-50, 53],
      [-33, 72],
      [-32, 103],
      [-5, 83],
      [-157, 243],
      [-25, 69],
      [-41, 11],
      [-16, 82],
      [-95, 102],
      [-94, 4],
      [-14, 17],
      [-117, -20],
      [-7, 91],
      [24, 133],
      [-11, 139],
      [35, 45],
      [1, 66],
      [-18, 74],
      [18, 71],
      [-99, 77],
      [-19, 62],
      [3, 67],
      [-44, 145],
      [-45, -31],
      [-15, 28],
      [-54, -3]
    ],
    [
      [1721, 48230],
      [32, 70],
      [27, 114],
      [29, 2],
      [29, 41],
      [28, 127],
      [25, -4],
      [19, 55],
      [11, 82]
    ],
    [
      [1921, 48717],
      [116, 32],
      [68, -28],
      [73, -64],
      [-7, -111],
      [24, 9],
      [40, -51],
      [60, -26],
      [13, -56],
      [34, 38],
      [42, 9],
      [8, -115],
      [37, -67],
      [42, 27],
      [124, -57],
      [86, 0],
      [32, 89],
      [23, 13],
      [174, -27],
      [29, -190],
      [0, -71],
      [57, -78],
      [-19, -109],
      [118, -66],
      [110, -183],
      [1, -71],
      [26, 0],
      [12, -110],
      [116, -556]
    ],
    [
      [3360, 46898],
      [-40, -291],
      [-97, -433],
      [1, -662]
    ],
    [
      [2874, 45488],
      [-25, 32]
    ],
    [
      [1921, 48717],
      [22, 158],
      [38, 54],
      [5, 92],
      [17, 8],
      [17, 187],
      [68, 48],
      [15, -51],
      [29, 38],
      [25, -17],
      [25, 57],
      [33, 24],
      [32, 90],
      [-39, 91],
      [-88, 243],
      [12, 160],
      [69, 86],
      [-38, 373],
      [-26, 53],
      [2, 98],
      [-20, 47],
      [26, 55],
      [-10, 91],
      [17, 74],
      [251, -55]
    ],
    [
      [2403, 50721],
      [386, -3],
      [126, -46],
      [16, -109],
      [-18, -142],
      [-33, -71],
      [-60, 10],
      [-18, -76],
      [0, -136],
      [27, -61],
      [76, -88],
      [17, -151],
      [31, -9],
      [31, -41],
      [35, 147],
      [28, 65],
      [23, 3],
      [25, -62]
    ],
    [
      [3095, 49951],
      [-8, -122],
      [-14, -18],
      [-6, -181],
      [50, 24],
      [83, -112],
      [-27, -94],
      [16, -29],
      [-23, -89],
      [-54, -102],
      [-33, -92],
      [66, -55],
      [0, -138],
      [16, -108],
      [25, -33],
      [15, -97],
      [29, 33],
      [20, -30],
      [14, -129],
      [37, -30],
      [29, 68],
      [52, 62],
      [77, -79]
    ],
    [
      [3459, 48600],
      [22, -188],
      [6, -223],
      [-15, -138],
      [4, -54],
      [43, -17],
      [45, -81],
      [-2, -71],
      [18, -81],
      [9, -240],
      [20, -50],
      [-15, -53],
      [0, -79]
    ],
    [
      [3594, 47325],
      [-54, -17],
      [10, -197],
      [-87, -156],
      [-103, -57]
    ],
    [
      [3095, 49951],
      [149, -103],
      [12, 185],
      [55, 23],
      [48, -17],
      [26, 39],
      [24, -18],
      [9, -70],
      [91, -46],
      [1, -47],
      [35, -13],
      [41, 54],
      [70, -4],
      [66, 18]
    ],
    [
      [3722, 49952],
      [6, -68],
      [-20, -81],
      [14, -206],
      [-35, 12],
      [-12, -113],
      [-35, -14],
      [-14, -144],
      [-9, -8],
      [-34, -238],
      [-48, -26],
      [-13, -104],
      [17, -53],
      [-24, -28],
      [16, -121],
      [-21, -107],
      [-47, 1],
      [-4, -54]
    ],
    [
      [4813, 48559],
      [0, 1836],
      [-261, 2],
      [-409, 2]
    ],
    [
      [4143, 50399],
      [423, 985]
    ],
    [
      [4566, 51384],
      [1, 221]
    ],
    [
      [4567, 51605],
      [62, -36],
      [108, -81],
      [57, -54],
      [26, -68],
      [44, -21],
      [50, -134],
      [43, -20],
      [35, 13],
      [41, -100],
      [3, -44],
      [59, -87],
      [15, -44],
      [127, -160],
      [35, 8],
      [73, -122],
      [11, -66],
      [40, -61],
      [-1, -79],
      [84, -113],
      [52, -88],
      [50, -61],
      [11, -62],
      [22, -20],
      [-4, -71],
      [37, -5],
      [61, -60],
      [28, -109],
      [64, 6],
      [21, 24],
      [28, -59],
      [32, -4],
      [55, -109],
      [21, 0],
      [19, -66],
      [67, -66],
      [1, -31],
      [38, -79],
      [37, -35]
    ],
    [
      [6119, 49441],
      [-41, -49],
      [4, -54],
      [-32, -25],
      [0, -57],
      [-38, -17],
      [-4, -44],
      [27, -33],
      [-9, -70]
    ],
    [
      [6026, 49092],
      [-62, -49],
      [-42, -92],
      [0, -86],
      [25, -57],
      [3, -80],
      [-13, -78],
      [6, -62],
      [-21, -82]
    ],
    [
      [4567, 51605],
      [0, 1291],
      [35, -42],
      [-5, -67],
      [61, -172],
      [27, -39],
      [12, -83],
      [29, -72],
      [17, -1],
      [54, -80],
      [7, -51],
      [64, -53],
      [31, -94],
      [55, -20],
      [42, -72],
      [27, -5],
      [34, -52],
      [-2, -41],
      [42, -115],
      [21, 10],
      [34, -56],
      [41, 0],
      [51, -25],
      [9, -43],
      [44, 6],
      [71, -71],
      [46, -2],
      [55, 26],
      [220, -250],
      [49, -119],
      [65, -64],
      [23, -42],
      [60, -35],
      [65, -86],
      [32, -2],
      [21, -44],
      [39, 8],
      [56, -57],
      [38, -83],
      [30, 53],
      [65, -60],
      [36, -51],
      [54, -6],
      [42, -75],
      [20, -114],
      [56, -102],
      [-22, -128],
      [-24, -35],
      [-26, 7],
      [-37, -206],
      [-32, -92],
      [-78, -95],
      [6, -60],
      [-24, -27],
      [2, -66],
      [-24, -39],
      [16, -46],
      [-18, -61],
      [12, -49],
      [-26, -37],
      [6, -82],
      [-52, -96]
    ],
    [
      [923, 34461],
      [1586, 0]
    ],
    [
      [2509, 34461],
      [-13, -66],
      [6, -116],
      [18, -92],
      [50, -156],
      [33, -55],
      [91, -69],
      [37, -85],
      [30, -25],
      [63, -119],
      [63, -36],
      [52, 5],
      [117, -38],
      [101, 12],
      [29, -16],
      [43, -102],
      [15, -86],
      [-8, -139],
      [-55, -207],
      [13, -129],
      [-31, -1],
      [8, -110],
      [-85, -34],
      [-85, -120],
      [2, -61],
      [-45, 2],
      [-18, -51],
      [-60, -11],
      [-72, -71],
      [-17, -56],
      [-45, -15],
      [-55, -56],
      [-35, -120],
      [-76, -59],
      [-54, -79],
      [-33, -97],
      [-13, -85],
      [-50, -64],
      [51, -60],
      [-21, -181],
      [-5, -115],
      [-41, -127],
      [-79, -97],
      [-42, -29],
      [-77, -12],
      [-25, -51],
      [-185, -117],
      [-78, -180],
      [-25, -127],
      [4, -135],
      [-14, -63],
      [23, -146],
      [64, -304],
      [-6, -54],
      [99, -280],
      [139, -267],
      [-190, 35],
      [-58, 58],
      [-80, 42],
      [-116, -1],
      [-199, 118],
      [-755, 0],
      [-11, 101],
      [-67, 100],
      [-65, 59],
      [-23, 116],
      [30, 186],
      [-55, 137],
      [14, 66],
      [42, -9],
      [7, 125],
      [-38, 91],
      [23, 78],
      [-28, 34],
      [-52, 13],
      [-41, -64],
      [-52, 52],
      [-64, -43],
      [-25, -56],
      [-97, -62],
      [-32, 26],
      [44, 87],
      [-38, 22],
      [-7, 49],
      [-57, 80],
      [-14, 109],
      [-38, 58],
      [10, 119],
      [23, 50],
      [-28, 102],
      [45, 130],
      [-28, 42],
      [18, 49],
      [-28, 61],
      [-2, 52],
      [45, 83],
      [6, 57],
      [-33, 36],
      [9, 56],
      [128, -54],
      [0, 63],
      [32, 49],
      [56, 150],
      [49, -25],
      [18, 45],
      [85, 89],
      [-1, 103],
      [-20, 140],
      [56, -21],
      [14, 76],
      [71, 74],
      [-36, 69],
      [7, 59],
      [-24, 67],
      [-32, 7],
      [7, 76],
      [-40, 23],
      [23, 98],
      [7, 84],
      [62, 151],
      [-1, 52],
      [52, 40],
      [13, 52],
      [52, 26],
      [-2, 61],
      [53, -10],
      [-6, 96],
      [-29, 25],
      [9, 64],
      [-15, 70],
      [6, 71],
      [48, 13],
      [74, 88],
      [-10, 123],
      [-34, 143],
      [11, 58],
      [-19, 57],
      [-54, 46],
      [78, 39],
      [28, 71]
    ],
    [
      [872, 37593],
      [1576, 0],
      [1050, 0]
    ],
    [
      [3498, 37593],
      [22, -73],
      [52, -68],
      [55, -26],
      [108, -20],
      [-37, -53],
      [-20, -94],
      [67, -10],
      [59, 19],
      [64, -11],
      [27, 37],
      [-7, 160],
      [55, 58],
      [64, 24],
      [66, -190],
      [-1, -181],
      [9, -47],
      [-23, -73],
      [4, -51],
      [-63, -38],
      [-125, -51],
      [-56, 89],
      [16, 110],
      [-52, 73],
      [-57, 25],
      [-54, 3],
      [-49, -40],
      [-31, -50],
      [-58, -30],
      [-22, -64],
      [62, -81],
      [26, -5],
      [72, -62],
      [91, -31],
      [26, -34],
      [-51, -48],
      [-117, -68],
      [-85, -82],
      [-29, -57],
      [-1, -58],
      [-110, -200],
      [-8, -84],
      [21, -132],
      [29, -88],
      [2, -71],
      [-36, -53],
      [38, -127],
      [-47, -70],
      [14, -43],
      [-64, -70],
      [-69, -52],
      [-21, -46],
      [-14, -97],
      [76, -56],
      [-64, -98],
      [-58, 34],
      [-35, -37],
      [-72, 50],
      [-94, -42],
      [-94, -78],
      [-25, -57],
      [-70, -14],
      [-48, -34],
      [-39, -57],
      [-62, -142],
      [-48, -75],
      [-21, -129],
      [-22, -25],
      [-55, -141]
    ],
    [
      [923, 34461],
      [-3, 85],
      [-36, 69],
      [-20, 108],
      [44, 117],
      [48, -6],
      [35, 23],
      [-23, 79],
      [76, 56],
      [6, 23],
      [-41, 94],
      [-25, 22],
      [-28, 130],
      [-72, 15],
      [-29, 31],
      [-42, -20],
      [-44, 33],
      [-11, 41],
      [23, 52],
      [57, -13],
      [29, 38],
      [47, -28],
      [75, 40],
      [72, -61],
      [33, 50],
      [-11, 86],
      [52, 39],
      [-11, 93],
      [-45, 43],
      [-55, 25],
      [-65, -18],
      [-84, -1],
      [-29, 47],
      [16, 124],
      [-19, 61],
      [35, 11],
      [43, 120],
      [-45, 83],
      [4, 41],
      [36, 67],
      [-16, 60],
      [-57, 112],
      [-34, 26],
      [37, 90],
      [43, 41],
      [-12, 92],
      [-71, 57],
      [-78, 151],
      [-9, 79],
      [18, 153],
      [41, 85],
      [-6, 68],
      [-40, 18],
      [-22, 175],
      [90, 16],
      [69, -6],
      [22, 30],
      [-19, 86]
    ],
    [
      [1411, 42199],
      [-9, 191],
      [43, 49],
      [-44, 135],
      [15, 28],
      [-26, 167],
      [-52, 97],
      [19, 54],
      [63, 22],
      [-1, 94],
      [18, 89],
      [33, 108],
      [-24, 23],
      [36, 68],
      [0, 57],
      [80, 155],
      [-7, 98],
      [23, 29],
      [64, 1],
      [-3, 56],
      [-23, 36],
      [8, 59],
      [-1, 128],
      [-19, 95],
      [16, 147],
      [37, 188],
      [-12, 44],
      [-45, 16],
      [-33, -44],
      [-25, 92],
      [-7, 139],
      [36, 101],
      [-22, 23],
      [-40, 111],
      [8, 121]
    ],
    [
      [1517, 44976],
      [23, -41],
      [25, 76],
      [62, -33],
      [55, 58],
      [-11, 83],
      [5, 60],
      [36, 41],
      [13, 95],
      [26, 0],
      [29, 52],
      [55, -13],
      [28, 59],
      [50, -4],
      [40, -75],
      [38, 1],
      [0, -174],
      [99, 0],
      [80, 78],
      [0, 77],
      [62, 0],
      [21, 38],
      [38, -22],
      [39, 38],
      [37, -17],
      [16, -65],
      [27, -37],
      [67, -2],
      [31, -17],
      [29, 20],
      [20, -67],
      [55, -36]
    ],
    [
      [2884, 42294],
      [-650, 0],
      [0, -137],
      [18, 0],
      [-3, -1095]
    ],
    [
      [5613, 46726],
      [32, -75],
      [12, 80],
      [54, 13],
      [75, -38],
      [65, 105],
      [38, 10],
      [34, -23],
      [91, 66],
      [26, 1],
      [93, -86],
      [23, 21],
      [30, -34],
      [26, -92],
      [27, -15],
      [1, -94],
      [37, -80],
      [62, -63]
    ],
    [
      [6339, 46422],
      [7, -102],
      [-10, -42],
      [-35, -7],
      [21, -97],
      [-22, -62],
      [1, -70],
      [-26, -83],
      [1, -55],
      [-41, -54],
      [40, -97],
      [-23, -139],
      [-18, -49],
      [-48, -39],
      [27, -102],
      [-17, -123],
      [32, -79],
      [-9, -63],
      [-23, -29],
      [-9, -67],
      [18, -85],
      [4, -128],
      [12, -63],
      [8, -161],
      [-30, -44],
      [-73, -35],
      [-17, -46],
      [5, -78],
      [-16, -65],
      [-5, -140],
      [-19, -35],
      [23, -106],
      [5, -153],
      [30, -95]
    ],
    [
      [6132, 43829],
      [-46, 28],
      [-75, -26],
      [-43, 71],
      [-35, -2],
      [-18, 44],
      [-61, 46],
      [-29, -12],
      [-44, 32],
      [-2, 64],
      [-53, -8],
      [-34, 25],
      [-19, 57],
      [-39, -49],
      [-15, 56],
      [-56, 20],
      [-12, 56],
      [-85, 61],
      [-61, 121],
      [-25, 21]
    ],
    [
      [1517, 44976],
      [-8, 85],
      [-35, 28],
      [6, 82],
      [-40, 45],
      [8, 103],
      [-10, 68],
      [32, 20],
      [15, 49],
      [-28, 60],
      [-38, -1],
      [-33, 33],
      [-2, 112],
      [-39, 78],
      [-1, 99],
      [14, 52],
      [-5, 73],
      [19, 150],
      [38, -34],
      [40, 115],
      [-10, 72],
      [30, 156],
      [0, 74],
      [21, 112],
      [51, 76],
      [57, 34],
      [12, 99],
      [31, 56],
      [-61, 53],
      [19, 47],
      [11, 94],
      [-11, 88],
      [14, 52],
      [-23, 56],
      [3, 54],
      [-14, 135],
      [-22, 23],
      [10, 77],
      [23, 28],
      [24, 87],
      [35, 5],
      [-2, 64],
      [15, 52],
      [-4, 67],
      [28, 100],
      [-15, 68],
      [27, 79],
      [-1, 79],
      [23, 50]
    ],
    [
      [3452, 53190],
      [-63, -406],
      [30, -34],
      [-13, -65],
      [12, -47],
      [8, -105],
      [25, -58],
      [48, -37],
      [-2, -72],
      [24, -115],
      [40, -20],
      [1, -89],
      [13, -43],
      [34, -14],
      [41, 35],
      [59, -54],
      [34, -93],
      [35, 95],
      [78, 0],
      [-2, -550],
      [-24, -85],
      [-37, -76],
      [-41, 19],
      [-45, -83],
      [-9, -54],
      [-35, -29],
      [-30, 66],
      [-46, 49],
      [-33, -104],
      [-60, 30],
      [-45, 80],
      [-48, -34],
      [-57, 57],
      [-30, -17],
      [-46, 58],
      [-5, 98],
      [-22, 52],
      [2, 60],
      [-33, 60],
      [-73, 42],
      [-12, 92],
      [14, 276],
      [-51, 61],
      [-26, -5],
      [-50, -97],
      [-26, -148],
      [9, -58],
      [-3, -206],
      [-24, -60],
      [-47, -34],
      [-40, 28],
      [-75, 79],
      [-17, 76],
      [-24, -8],
      [-20, 74],
      [-86, 153]
    ],
    [
      [2659, 51930],
      [87, 544],
      [-75, 146],
      [21, 72],
      [44, 52],
      [-5, 90],
      [96, 80],
      [17, 156],
      [21, 23],
      [132, 64],
      [24, 32],
      [5, 112],
      [26, 122],
      [52, -37],
      [11, -65],
      [48, -12],
      [47, -111],
      [22, -26],
      [220, 18]
    ],
    [
      [4649, 46615],
      [-17, 106],
      [-135, 3],
      [-29, 64],
      [-1, 74],
      [16, 81],
      [-39, 5],
      [-3, 44],
      [-50, 31],
      [-19, 74],
      [13, 25],
      [-256, 60],
      [-2, 72],
      [-111, 9],
      [-14, 54],
      [-35, -36],
      [-33, 6],
      [-9, 56],
      [-116, 41],
      [-215, -59]
    ],
    [
      [3722, 49952],
      [32, 83],
      [1, 58],
      [57, 266],
      [95, -42],
      [7, 63],
      [136, -9],
      [73, -19],
      [20, 47]
    ],
    [
      [2261, 41051],
      [140, -22],
      [33, -31],
      [26, -124],
      [-6, -37],
      [-43, -46],
      [-20, -78],
      [34, -44],
      [31, -2],
      [29, -99],
      [42, -43],
      [80, 4],
      [33, 27],
      [42, -58],
      [0, -51],
      [62, -70],
      [38, 2],
      [73, -69],
      [40, -21],
      [1, -95],
      [65, -52],
      [140, 16],
      [52, -17],
      [102, -69],
      [26, 37],
      [39, 7],
      [52, -41],
      [78, -4],
      [31, 29],
      [74, -26],
      [46, 13],
      [83, -34],
      [97, -19],
      [111, -85],
      [65, -90],
      [43, -2],
      [18, -62],
      [28, -12],
      [62, -85],
      [51, -12]
    ],
    [
      [4159, 39686],
      [1, -1083],
      [74, -5],
      [91, -79],
      [61, -129],
      [5, -32]
    ],
    [
      [4391, 38358],
      [-37, -44],
      [-91, -59],
      [-263, -3],
      [-67, 67],
      [-97, 50],
      [-131, 113],
      [-80, 37],
      [-51, -8],
      [-9, 53],
      [-42, 0],
      [-48, -75],
      [-15, -92],
      [11, -200],
      [26, -146],
      [28, -55],
      [-8, -104],
      [2, -167],
      [-19, -58],
      [-2, -74]
    ],
    [
      [872, 37593],
      [-9, 124],
      [5, 84],
      [-40, 101],
      [23, 98],
      [-33, 97],
      [28, 162],
      [-8, 93]
    ],
    [
      [2251, 41061],
      [10, -10]
    ],
    [
      [7035, 49068],
      [-6, -56],
      [90, -291],
      [1, -123],
      [77, -145]
    ],
    [
      [7197, 48453],
      [-2, -33],
      [-59, -61],
      [44, -60],
      [-34, -30],
      [-47, 6],
      [-2, -91],
      [-50, -22],
      [1, -78],
      [-44, -60],
      [-26, -69],
      [-42, -22],
      [-3, -81],
      [-43, -60],
      [-3, -79],
      [-68, -35],
      [-21, -59],
      [-2, -57],
      [-21, -71],
      [-25, -16],
      [-18, -78],
      [-34, -40],
      [-54, -130],
      [-32, -50],
      [-43, -12],
      [-38, -82],
      [-4, -84],
      [-28, -32],
      [-26, -69],
      [-67, -49],
      [12, -57],
      [-11, -68],
      [-96, -132],
      [1, -61],
      [27, -109]
    ],
    [
      [6026, 49092],
      [48, 37],
      [47, -15],
      [49, 22],
      [22, -15],
      [72, 17],
      [53, -11],
      [27, -52],
      [42, 10],
      [74, -92],
      [71, 27],
      [40, -47],
      [100, -22],
      [11, -47],
      [38, -38],
      [40, 1],
      [25, 33],
      [-16, 77],
      [45, 26],
      [19, -19],
      [27, -84],
      [25, -31],
      [26, 13],
      [25, 72],
      [2, 65],
      [53, 65],
      [49, -2]
    ],
    [
      [7040, 49082],
      [-5, -14]
    ],
    [
      [6693, 49010],
      [59, -62],
      [10, -38],
      [-40, -36],
      [-51, 81],
      [22, 55]
    ],
    [
      [7040, 49082],
      [51, -9],
      [43, -77],
      [78, 85],
      [11, 181],
      [41, -4],
      [4, 63],
      [27, 47],
      [47, 22],
      [45, -12],
      [0, 68],
      [33, 53],
      [40, 14],
      [5, 77],
      [51, 11],
      [5, 104],
      [37, 68],
      [23, 108],
      [-13, 38],
      [24, 38],
      [-21, 45],
      [11, 49],
      [-14, 71],
      [27, 20],
      [-4, 51],
      [13, 64],
      [-26, 126],
      [28, 3],
      [11, 61],
      [51, -55],
      [16, 49],
      [110, 80],
      [9, -51],
      [25, -4],
      [60, -74],
      [-1, -67],
      [18, -56],
      [-3, -116],
      [35, -61],
      [-3, -59],
      [41, -76],
      [-2, -57],
      [-25, -79],
      [5, -81],
      [-18, -149],
      [17, -69],
      [2, -92],
      [-27, -124],
      [-15, 4],
      [-14, -102],
      [-67, -23],
      [-30, -79],
      [-41, 19],
      [-10, -84],
      [-26, -50],
      [-65, -21],
      [-93, -79],
      [-50, 33],
      [-13, -69],
      [-23, -14],
      [1, -64],
      [-48, -88],
      [-68, -19],
      [-26, -56],
      [-23, 3],
      [-24, -46],
      [3, -40],
      [-28, -51],
      [-20, 15],
      [-22, -64],
      [-28, 22]
    ],
    [
      [2403, 50721],
      [-251, 55],
      [27, 35],
      [36, 10],
      [-24, 63],
      [-10, 97],
      [-34, 25],
      [-20, 63],
      [10, 55],
      [43, 92],
      [18, 96],
      [31, -6],
      [19, 70],
      [368, 288],
      [43, 266]
    ],
    [
      [3452, 53190],
      [76, 3],
      [52, -31],
      [49, -57],
      [33, 4],
      [44, -73],
      [-10, -70],
      [60, -130],
      [-9, -73],
      [35, -85],
      [29, 22],
      [11, 120],
      [50, 120],
      [21, 131],
      [24, 63],
      [27, 124],
      [439, 0],
      [-1, -83],
      [50, -84],
      [19, -73],
      [68, -52],
      [32, -80],
      [15, 13],
      [0, -1515]
    ],
    [
      [4355, 43557],
      [-197, 0],
      [0, -483]
    ],
    [
      [4158, 43074],
      [-674, -10]
    ],
    [
      [6133, 43365],
      [64, -89],
      [65, -29],
      [26, -41],
      [29, 6],
      [48, -70],
      [95, -86],
      [61, -95],
      [51, -99],
      [37, -135],
      [-93, -235],
      [-10, -84],
      [3, -89],
      [41, -134],
      [64, -112],
      [40, -38],
      [78, -5],
      [29, 16],
      [16, -76],
      [13, -367],
      [-127, -320],
      [-53, -160],
      [-112, -189],
      [-31, -73],
      [-20, -110],
      [-1, -104],
      [-55, -82],
      [-66, -71],
      [-187, -146],
      [-306, -170],
      [-220, -74],
      [-71, -34],
      [-103, -22],
      [-288, -89],
      [-114, -16],
      [-92, 9],
      [-89, -12],
      [-40, 30],
      [-40, -22],
      [-103, 54],
      [-21, 65],
      [-66, 44],
      [-30, -46],
      [28, -142],
      [-21, -59],
      [26, -104],
      [62, -46],
      [47, -59],
      [-43, -231],
      [1, -146],
      [-80, -15],
      [-12, -158],
      [5, -92],
      [-42, -49],
      [-16, -64],
      [26, -103],
      [39, -33],
      [15, -52],
      [39, -4],
      [-51, -231],
      [-94, -68],
      [-62, -62],
      [-31, 11]
    ],
    [
      [4159, 39686],
      [-1, 3388]
    ],
    [
      [6132, 43829],
      [-3, -140],
      [-33, -66],
      [-1, -67],
      [-19, -45],
      [-5, -82]
    ],
    [
      [175, 13219],
      [-84, -158],
      [-91, -37],
      [0, 120],
      [61, 20],
      [-9, 63],
      [123, -8]
    ],
    [
      [177, 15088],
      [-73, -60],
      [-104, -48],
      [0, 252],
      [55, -19],
      [122, -125]
    ],
    [
      [496, 9729],
      [-24, -107],
      [-219, -190],
      [-253, -111],
      [0, 480],
      [496, -72]
    ],
    [
      [802, 15926],
      [-223, -22],
      [-97, 24],
      [-78, 139],
      [108, 58],
      [114, -38],
      [50, -106],
      [126, -55]
    ],
    [
      [1033, 15392],
      [-97, -86],
      [-83, 127],
      [136, 23],
      [44, -64]
    ],
    [
      [2302, 14418],
      [-32, -70],
      [-2, -147],
      [-72, -85],
      [21, -86],
      [-49, -125],
      [-113, 18],
      [-77, -120],
      [-66, 2],
      [-51, -70],
      [16, -56],
      [-225, -64],
      [-134, -2],
      [-224, -40],
      [-283, 31],
      [-236, -2],
      [-137, -30],
      [-189, 74],
      [-121, 100],
      [26, 54],
      [154, 85],
      [143, -14],
      [189, -53],
      [364, -32],
      [279, 85],
      [-81, 124],
      [-108, -29],
      [-168, -84],
      [-105, -5],
      [-100, 23],
      [-155, 76],
      [219, 72],
      [209, 30],
      [82, 49],
      [14, 70],
      [-60, 23],
      [-109, -50],
      [-94, 57],
      [-163, -47],
      [-10, 57],
      [-142, 126],
      [-65, 25],
      [-57, -78],
      [-69, 5],
      [-16, -111],
      [-64, -50],
      [-119, 2],
      [-118, 74],
      [-110, -53],
      [100, -84],
      [-194, -123],
      [0, 582],
      [88, -82],
      [139, -56],
      [-109, 193],
      [134, 36],
      [160, -41],
      [43, -38],
      [108, 31],
      [124, -9],
      [9, 50],
      [-197, 35],
      [-87, 33],
      [-70, 64],
      [141, 61],
      [71, -18],
      [78, 31],
      [133, -35],
      [55, -39],
      [108, -6],
      [179, 120],
      [63, 17],
      [109, -15],
      [99, 31],
      [215, 5],
      [-10, 50],
      [-161, 50],
      [-83, -18],
      [-94, 14],
      [-44, 46],
      [-107, 12],
      [-26, 58],
      [82, 88],
      [34, 91],
      [90, 33],
      [132, 15],
      [89, 31],
      [113, -7],
      [2, 44],
      [-138, 55],
      [-103, 7],
      [-93, 80],
      [-92, -90],
      [-156, 84],
      [-118, 40],
      [-101, 112],
      [44, 113],
      [93, 40],
      [-60, 64],
      [-3, 76],
      [44, 88],
      [-16, 45],
      [-95, 27],
      [-74, 80],
      [2, 70],
      [-44, 68],
      [79, 94],
      [106, 32],
      [57, 48],
      [222, -10],
      [50, 37],
      [125, 5],
      [55, 27],
      [131, -83],
      [31, -244],
      [-34, -58],
      [69, -29],
      [74, 24],
      [81, -136],
      [22, -90],
      [64, -49],
      [-4, -150],
      [59, -182],
      [42, -76],
      [135, -154],
      [53, -166],
      [45, -42],
      [58, -140],
      [9, -180],
      [36, -123],
      [-12, -213],
      [49, -110]
    ],
    [
      [2485, 18257],
      [-115, -107],
      [-28, -91],
      [83, -102],
      [-9, -94],
      [-59, -87],
      [-101, -61],
      [117, -16],
      [-73, -134],
      [-116, 11],
      [9, -73],
      [-59, -71],
      [-137, -19],
      [-21, 54],
      [-95, 122],
      [27, 84],
      [93, 92],
      [50, 126],
      [118, 225],
      [73, 85],
      [73, 27],
      [91, 82],
      [69, -3],
      [10, -50]
    ],
    [
      [2650, 18138],
      [-64, -56],
      [-59, 34],
      [13, 94],
      [69, 8],
      [41, -80]
    ],
    [
      [2671, 9012],
      [-9, -60],
      [-168, -131],
      [-425, -221],
      [-311, -221],
      [-124, -111],
      [26, -63],
      [-198, -78],
      [3, -35],
      [-209, -27],
      [-270, 54],
      [-120, 93],
      [-11, 59],
      [137, 217],
      [113, 89],
      [139, 73],
      [207, 79],
      [160, 39],
      [156, 81],
      [378, 101],
      [210, 76],
      [228, 16],
      [88, -30]
    ],
    [
      [2692, 17531],
      [-66, -95],
      [-57, -39],
      [-101, 15],
      [-21, 85],
      [120, 59],
      [75, 8],
      [50, -33]
    ],
    [
      [2809, 17610],
      [-44, -41],
      [-87, -23],
      [-22, 39],
      [65, 35],
      [88, -10]
    ],
    [
      [2902, 18711],
      [-7, -80],
      [-64, -11],
      [10, 106],
      [61, -15]
    ],
    [
      [3277, 19161],
      [-10, -110],
      [-97, -28],
      [22, -91],
      [-113, -46],
      [-23, 42],
      [39, 106],
      [54, 62],
      [-1, 53],
      [77, 25],
      [52, -13]
    ],
    [
      [3477, 27683],
      [-28, -33],
      [-15, -104],
      [-158, -111],
      [-40, 47],
      [-95, 6],
      [4, -51],
      [-53, -21],
      [-89, -1],
      [-15, -34],
      [-59, -14],
      [-77, 41],
      [-18, 35],
      [-152, 53],
      [-138, 31],
      [-78, -26],
      [-129, 28],
      [-84, 43],
      [-32, -27],
      [-104, -34],
      [-5, 355],
      [1, 1379],
      [14, -38],
      [111, -191],
      [-99, -151],
      [-4, -81],
      [34, -36],
      [61, -21],
      [39, 11],
      [49, -65],
      [15, -93],
      [52, -113],
      [143, -147],
      [4, -68],
      [81, -89],
      [233, -172],
      [29, -65],
      [77, -106],
      [31, -6],
      [228, -130],
      [114, -3],
      [108, 29],
      [44, -27]
    ],
    [
      [3694, 17535],
      [-57, -56],
      [-94, 29],
      [10, 39],
      [141, -12]
    ],
    [
      [3997, 27626],
      [-19, -49],
      [-128, -27],
      [-25, 33],
      [-69, -61],
      [-76, -40],
      [-47, 77],
      [175, 65],
      [189, 2]
    ],
    [
      [4357, 19908],
      [-121, -54],
      [-52, -70],
      [-96, 3],
      [-53, -95],
      [-33, 54],
      [-110, 23],
      [-50, 90],
      [31, 70],
      [83, 15],
      [-16, 60],
      [91, 11],
      [15, 100],
      [91, 52],
      [104, -20],
      [-52, -68],
      [-7, -67],
      [75, -36],
      [-60, -68],
      [158, 38],
      [2, -38]
    ],
    [
      [4689, 20245],
      [-8, -50],
      [-53, -76],
      [-18, -64],
      [-85, -80],
      [-61, -27],
      [-33, 98],
      [88, 134],
      [-60, 73],
      [46, 33],
      [14, 70],
      [65, -7],
      [5, -62],
      [100, -42]
    ],
    [
      [4717, 20882],
      [-107, -10],
      [-6, 69],
      [80, 7],
      [33, -66]
    ],
    [
      [4782, 16043],
      [-49, -26],
      [-21, -134],
      [-57, -7],
      [-33, 88],
      [-1, 86],
      [-48, 82],
      [-62, 52],
      [-38, 115],
      [58, 35],
      [125, -58],
      [111, -121],
      [38, -86],
      [-23, -26]
    ],
    [
      [5013, 21365],
      [-79, -90],
      [-36, 69],
      [64, 35],
      [51, -14]
    ],
    [
      [5031, 15738],
      [-26, -72],
      [-72, 49],
      [98, 23]
    ],
    [
      [5148, 29927],
      [-15, -128],
      [-39, -29],
      [-54, 101],
      [41, 63],
      [34, -31],
      [33, 24]
    ],
    [
      [5220, 16640],
      [-38, -39],
      [-85, 47],
      [51, 44],
      [72, -52]
    ],
    [
      [5261, 20604],
      [-55, -99],
      [-19, -71],
      [-58, 48],
      [56, 31],
      [19, 83],
      [57, 8]
    ],
    [
      [5281, 14911],
      [-33, -85],
      [-140, 72],
      [93, 55],
      [80, -42]
    ],
    [
      [5315, 15218],
      [-39, -80],
      [-105, -40],
      [-73, 84],
      [14, 59],
      [167, 23],
      [36, -46]
    ],
    [
      [5560, 21451],
      [-96, -75],
      [-102, -45],
      [-19, 81],
      [-137, 30],
      [-58, -54],
      [-72, 27],
      [83, 57],
      [16, 82],
      [74, -76],
      [106, 9],
      [75, 78],
      [56, -130],
      [74, 16]
    ],
    [
      [5588, 7659],
      [-56, -288],
      [-65, -142],
      [-130, -110],
      [-177, -38],
      [-239, 10],
      [-341, 47],
      [-261, 90],
      [-61, 130],
      [-190, 9],
      [-217, -45],
      [-141, -62],
      [-221, 39],
      [-323, 92],
      [-326, 130],
      [-29, 54],
      [76, 70],
      [169, 32],
      [-3, -110],
      [185, -47],
      [731, -33],
      [169, -21],
      [524, 49],
      [304, 83],
      [45, 39],
      [-84, 78],
      [79, 214],
      [109, 67],
      [163, 38],
      [153, -14],
      [98, -61],
      [-31, -202],
      [90, -98]
    ],
    [
      [5654, 21543],
      [-59, -49],
      [-87, 42],
      [83, 47],
      [63, -40]
    ],
    [
      [5703, 19403],
      [-43, -18],
      [-88, 50],
      [49, 59],
      [82, -91]
    ],
    [
      [5735, 21624],
      [-55, -58],
      [-88, 74],
      [74, 30],
      [69, -46]
    ],
    [
      [5801, 30232],
      [-40, -51],
      [-58, -133],
      [-40, -10],
      [-34, -85],
      [-46, -48],
      [-44, -115],
      [-149, -42],
      [-11, -58],
      [-57, -42],
      [-79, -89],
      [-96, 169],
      [6, 69],
      [108, -23],
      [47, 85],
      [105, 101],
      [-5, 36],
      [-74, -13],
      [-23, -42],
      [-51, -22],
      [-27, 55],
      [107, 45],
      [37, 48],
      [-87, 55],
      [16, 80],
      [82, -44],
      [54, -9],
      [58, 86],
      [88, -51],
      [63, 20],
      [42, -23],
      [42, 82],
      [66, -31]
    ],
    [
      [5929, 21683],
      [-71, -31],
      [-52, 41],
      [69, 54],
      [54, -64]
    ],
    [
      [6085, 30302],
      [59, -83],
      [-57, -103],
      [86, -19],
      [-22, 66],
      [6, 75],
      [106, 8],
      [63, -25],
      [34, -100],
      [-133, 8],
      [18, -48],
      [107, -20],
      [-38, -102],
      [-61, -9],
      [-77, -54],
      [-27, -45],
      [-101, -17],
      [-146, 51],
      [15, -47],
      [105, -50],
      [-43, -66],
      [-47, -2],
      [-28, -51],
      [-82, 94],
      [38, -132],
      [-25, -59],
      [-56, 53],
      [-74, 17],
      [38, -106],
      [-18, -24],
      [-82, 55],
      [16, 35],
      [-54, 52],
      [55, 54],
      [-23, 118],
      [41, -5],
      [3, 69],
      [76, 35],
      [35, 58],
      [93, 36],
      [-79, 68],
      [68, 156],
      [53, 5],
      [-14, 81],
      [91, -46],
      [56, 32],
      [25, -13]
    ],
    [
      [6433, 21912],
      [-58, 12],
      [-125, -55],
      [-35, 18],
      [-37, -104],
      [-152, -59],
      [-69, 24],
      [-36, 90],
      [206, 145],
      [57, -23],
      [63, 24],
      [146, -39],
      [40, -33]
    ],
    [
      [6635, 20493],
      [-65, -54],
      [-80, 20],
      [-74, -5],
      [-32, 51],
      [139, 26],
      [112, -38]
    ],
    [
      [6634, 20238],
      [-132, -98],
      [47, -58],
      [-36, -26],
      [-63, 30],
      [-150, -67],
      [-47, 11],
      [-107, 77],
      [59, 43],
      [-23, 131],
      [-44, -34],
      [-50, 45],
      [66, 133],
      [127, 90],
      [62, 4],
      [15, -78],
      [-45, -59],
      [58, -34],
      [88, -2],
      [147, -50],
      [28, -58]
    ],
    [
      [6696, 20105],
      [-41, -122],
      [-94, -69],
      [-79, 31],
      [3, 71],
      [69, 3],
      [142, 86]
    ],
    [
      [6751, 20718],
      [-21, -78],
      [-53, 29],
      [-86, 4],
      [13, 94],
      [-71, 0],
      [-157, -58],
      [-59, -90],
      [-63, -1],
      [-95, -42],
      [-38, -95],
      [-62, -67],
      [-45, -13],
      [-56, -152],
      [-5, -56],
      [-81, 13],
      [-41, -38],
      [140, -30],
      [-59, -53],
      [45, -46],
      [13, -73],
      [-57, -39],
      [-60, 82],
      [-46, -17],
      [-77, 33],
      [-10, 74],
      [-33, 22],
      [-66, -74],
      [42, -109],
      [-43, -48],
      [-58, 35],
      [18, 100],
      [-86, -6],
      [-42, -47],
      [-96, -42],
      [-13, -79],
      [-130, -58],
      [-1, -51],
      [-120, -126],
      [-127, -71],
      [-81, 48],
      [-63, -11],
      [-4, -67],
      [52, -37],
      [-13, -86],
      [-159, -16],
      [-56, -40],
      [-27, -112],
      [112, -34],
      [13, -38],
      [-71, -43],
      [16, -50],
      [-147, -149],
      [16, -61],
      [130, -135],
      [50, -21],
      [81, 38],
      [35, 54],
      [119, -58],
      [0, 75],
      [31, 60],
      [86, -88],
      [0, 92],
      [173, -22],
      [12, -58],
      [-196, -59],
      [66, -79],
      [-20, -59],
      [-67, -69],
      [-30, 43],
      [16, 58],
      [-65, 58],
      [-75, -12],
      [-3, -48],
      [-93, -4],
      [25, -72],
      [-10, -111],
      [-53, 8],
      [-16, 91],
      [-43, 58],
      [-95, 71],
      [-124, -59],
      [-68, 3],
      [-15, -60],
      [72, -56],
      [19, -71],
      [-75, -28],
      [-3, -47],
      [80, -19],
      [20, -75],
      [-62, -33],
      [-63, 64],
      [-42, 143],
      [-98, 95],
      [-21, 66],
      [-76, 11],
      [-62, 42],
      [-85, -60],
      [-39, -81],
      [-17, -94],
      [45, -74],
      [-137, -35],
      [87, -45],
      [71, -72],
      [3, -83],
      [-144, -29],
      [-54, 65],
      [-50, -47],
      [-149, 57],
      [25, -115],
      [-78, 7],
      [-37, -43],
      [112, -91],
      [-111, -39],
      [84, -54],
      [-63, -47],
      [-150, -55],
      [-85, 22],
      [12, -80],
      [-41, -65],
      [108, -86],
      [-109, -72],
      [29, -67],
      [-68, -26],
      [77, -59],
      [41, -60],
      [-85, -12],
      [-58, -93],
      [160, 19],
      [35, -30],
      [110, 66],
      [90, -17],
      [-16, -43],
      [-244, -110],
      [11, -54],
      [120, 15],
      [41, -35],
      [-63, -72],
      [-84, -49],
      [76, -53],
      [150, -54],
      [69, -41],
      [196, -67],
      [39, 67],
      [-54, 40],
      [-48, 80],
      [115, 86],
      [205, 41],
      [176, 16],
      [57, -19],
      [-30, -59],
      [-84, 47],
      [-59, -3],
      [-66, -77],
      [-80, 8],
      [-70, -77],
      [-6, -44],
      [71, -40],
      [106, -16],
      [-27, -103],
      [-77, -54],
      [-86, -29],
      [230, -66],
      [-54, -59],
      [114, -4],
      [26, -105],
      [50, -59],
      [73, 27],
      [53, -38],
      [20, -69],
      [75, -40],
      [-13, -194],
      [-35, -69],
      [82, -40],
      [-4, -55],
      [124, -66],
      [53, -110],
      [-37, -44],
      [-175, 35],
      [-12, -135],
      [118, -23],
      [66, -63],
      [222, -3],
      [17, -51],
      [-105, -24],
      [-8, -61],
      [-142, -85],
      [-22, -81],
      [109, -21],
      [40, 59],
      [77, 12],
      [95, -49],
      [-45, -104],
      [59, -57],
      [89, -37],
      [11, -68],
      [-71, -141],
      [-130, -30],
      [-106, -121],
      [-132, -10],
      [-5, -42],
      [195, -11],
      [86, 43],
      [82, 81],
      [60, -86],
      [87, -30],
      [7, -59],
      [-103, -76],
      [-143, -15],
      [-88, 13],
      [-165, -44],
      [-150, 1],
      [3, -43],
      [124, -39],
      [-108, -68],
      [175, 5],
      [86, 42],
      [123, -18],
      [289, 22],
      [-7, -61],
      [-83, -54],
      [75, -36],
      [21, -158],
      [-155, -33],
      [-113, 44],
      [30, -156],
      [-45, -22],
      [93, -113],
      [41, 74],
      [106, 34],
      [88, -6],
      [14, -122],
      [-45, -75],
      [27, -56],
      [116, -36],
      [57, 118],
      [59, -16],
      [17, -86],
      [-56, -119],
      [26, -64],
      [-53, -50],
      [-99, -18],
      [-37, 81],
      [-51, 25],
      [-85, -99],
      [-97, -26],
      [-53, 34],
      [-34, 83],
      [-150, 30],
      [-146, 4],
      [119, -117],
      [-61, -41],
      [41, -67],
      [346, -83],
      [53, -30],
      [-135, -115],
      [147, 32],
      [-99, -206],
      [-104, 1],
      [-65, 69],
      [-164, -38],
      [126, -74],
      [187, -58],
      [-96, -104],
      [-143, -56],
      [101, -36],
      [87, 13],
      [149, 62],
      [63, -18],
      [-50, -79],
      [-111, -31],
      [12, -78],
      [-132, -35],
      [-98, 10],
      [-204, 58],
      [-21, -64],
      [61, -36],
      [86, -142],
      [-111, -131],
      [-140, -46],
      [-52, 18],
      [-12, 142],
      [-87, 67],
      [-100, 39],
      [-88, -46],
      [69, -70],
      [26, -75],
      [-75, -15],
      [-112, 45],
      [-32, -57],
      [-167, -32],
      [101, -51],
      [184, 25],
      [108, -103],
      [-129, -28],
      [-315, -29],
      [-107, -84],
      [49, -41],
      [196, 40],
      [228, -11],
      [61, -20],
      [-200, -130],
      [-264, -121],
      [-295, -86],
      [-104, -2],
      [-36, -48],
      [-349, -123],
      [-202, -28],
      [-263, -63],
      [-230, -17],
      [37, -61],
      [-240, -54],
      [-129, 3],
      [-230, -34],
      [-257, -58],
      [50, -89],
      [-67, -112],
      [-327, -59],
      [-239, -17],
      [-252, 48],
      [-235, 23],
      [-199, -13],
      [-190, 29],
      [-57, -29],
      [0, 2388],
      [104, 7],
      [27, 52],
      [116, 16],
      [150, 75],
      [84, 17],
      [134, -17],
      [49, 50],
      [214, 35],
      [118, -14],
      [153, 77],
      [135, 8],
      [131, -27],
      [62, 44],
      [174, 12],
      [190, 33],
      [173, 61],
      [76, 1],
      [346, 192],
      [113, 20],
      [-15, 67],
      [125, 113],
      [2, 114],
      [95, 85],
      [6, 76],
      [77, 85],
      [-10, 139],
      [-76, 49],
      [-83, 96],
      [19, 21],
      [-155, 100],
      [-37, 66],
      [-6, 118],
      [57, 85],
      [12, 81],
      [-41, 69],
      [71, 57],
      [-61, 39],
      [-100, 230],
      [38, 45],
      [-60, 101],
      [-40, 137],
      [-131, 146],
      [-77, 53],
      [-6, 95],
      [47, 41],
      [20, 141],
      [-66, 45],
      [-43, 89],
      [-58, 39],
      [-25, 62],
      [98, 15],
      [104, -21],
      [53, 66],
      [152, -41],
      [126, -67],
      [92, 126],
      [130, 58],
      [-29, 84],
      [81, 42],
      [-48, 74],
      [-142, 13],
      [-95, 93],
      [38, 33],
      [153, 1],
      [-13, 141],
      [-65, 78],
      [98, 38],
      [4, 87],
      [-79, 3],
      [-15, 51],
      [157, -28],
      [62, 62],
      [-100, 6],
      [-97, 94],
      [19, 51],
      [-85, 66],
      [178, 36],
      [-22, 63],
      [-80, 46],
      [127, 146],
      [19, 41],
      [-93, 48],
      [-157, -48],
      [-111, 65],
      [41, 84],
      [-19, 150],
      [32, 82],
      [78, -47],
      [25, 63],
      [112, 79],
      [30, -190],
      [163, -66],
      [10, 63],
      [-60, 99],
      [-2, 44],
      [66, 111],
      [-41, 59],
      [-13, 82],
      [86, 64],
      [87, 1],
      [68, -56],
      [88, -35],
      [38, 29],
      [-42, 76],
      [22, 109],
      [53, 23],
      [-60, 109],
      [26, 116],
      [135, -28],
      [-20, 80],
      [17, 64],
      [142, 33],
      [89, -71],
      [103, 42],
      [-99, 100],
      [5, 49],
      [125, -28],
      [-43, 138],
      [78, -3],
      [86, -34],
      [-55, 105],
      [81, 19],
      [-42, 86],
      [46, 24],
      [-46, 57],
      [2, 101],
      [107, 116],
      [66, -45],
      [101, -25],
      [61, 25],
      [25, -45],
      [80, 24],
      [-95, 96],
      [59, 67],
      [89, -4],
      [6, 82],
      [110, 44],
      [-16, 73],
      [53, 46],
      [42, -126],
      [103, 27],
      [56, 37],
      [-7, 57],
      [90, 35],
      [-1, -60],
      [76, 22],
      [-34, 56],
      [25, 80],
      [113, 33],
      [61, 66],
      [66, 3],
      [34, 104],
      [-11, 97],
      [56, -11],
      [115, 83],
      [86, 34],
      [104, -36],
      [5, 72],
      [47, 24],
      [106, -49],
      [67, 22],
      [13, 107],
      [56, 45],
      [39, -37],
      [76, 50],
      [-14, 49],
      [63, 63],
      [154, 46],
      [94, -14],
      [110, 126],
      [258, 72],
      [66, -30],
      [5, -76],
      [45, -53],
      [-33, -39],
      [94, -57]
    ],
    [
      [7039, 21126],
      [-9, -43],
      [-100, -84],
      [-69, 40],
      [-56, 74],
      [99, 45],
      [135, -32]
    ],
    [
      [7157, 20798],
      [2, -46],
      [-84, -61],
      [-85, 32],
      [-17, 80],
      [78, 36],
      [106, -41]
    ],
    [
      [7419, 20888],
      [-96, -31],
      [-50, 32],
      [-47, -14],
      [-112, 18],
      [-72, -12],
      [-9, -38],
      [-127, -44],
      [-74, 62],
      [81, 111],
      [86, 53],
      [120, 22],
      [94, 3],
      [20, -42],
      [190, -42],
      [-4, -78]
    ],
    [
      [7567, 22616],
      [-31, -27],
      [-109, -3],
      [-70, -93],
      [-48, 38],
      [-52, 81],
      [42, 58],
      [150, -48],
      [92, 18],
      [26, -24]
    ],
    [
      [7841, 22597],
      [-23, -118],
      [-59, 18],
      [41, 85],
      [41, 15]
    ],
    [
      [11300, 22962],
      [-56, -4],
      [-95, 34],
      [-78, -2],
      [-17, 45],
      [-83, -43],
      [29, 94],
      [88, 7],
      [30, -30],
      [74, -2],
      [17, -46],
      [91, -53]
    ],
    [
      [12145, 8271],
      [13, -58],
      [-36, -287],
      [-60, -78],
      [-174, 25],
      [-51, -67],
      [131, -57],
      [-86, -76],
      [-130, -49],
      [-582, -165],
      [-537, -94],
      [-444, -43],
      [-282, 21],
      [-260, -4],
      [-146, -54],
      [9, -53],
      [-169, -43],
      [-328, -30],
      [-641, -28],
      [-512, 12],
      [-134, 27],
      [-20, 61],
      [52, 124],
      [192, 246],
      [85, 58],
      [202, 12],
      [309, 54],
      [332, 193],
      [302, 205],
      [103, 49],
      [29, 95],
      [-86, 104],
      [54, 120],
      [-65, 21],
      [75, 114],
      [-30, 48],
      [84, 97],
      [-35, 101],
      [222, 305],
      [261, 201],
      [156, 36],
      [386, 144],
      [162, 21],
      [403, -20],
      [201, -37],
      [283, -79],
      [258, -118],
      [203, -143],
      [15, -88],
      [-96, -169],
      [-399, -18],
      [-147, -43],
      [-7, -74],
      [96, -29],
      [189, 13],
      [355, 0],
      [106, -105],
      [18, -93],
      [93, -93],
      [-55, -54],
      [133, -158]
    ],
    [
      [14967, 27595],
      [-73, -37],
      [-2, -54],
      [-111, 67],
      [-78, 207],
      [-138, 58],
      [-14, 81],
      [-76, 6],
      [-68, 85],
      [-32, -28],
      [-45, 18],
      [4, 78],
      [-87, -31],
      [-40, 42],
      [-6, 63],
      [122, 43],
      [6, -51],
      [112, 20],
      [183, -56],
      [29, -59],
      [-12, -37],
      [129, -26],
      [43, -93],
      [3, -48],
      [47, -18],
      [50, -116],
      [4, -87],
      [50, -27]
    ],
    [
      [18704, 24675],
      [-45, -12],
      [-39, 75],
      [74, -3],
      [10, -60]
    ],
    [
      [19179, 11076],
      [15, 4],
      [0, -11080],
      [-19194, 0],
      [0, 7183],
      [467, -107],
      [98, 135],
      [386, 55],
      [145, 60],
      [160, 24],
      [161, -68],
      [-7, -102],
      [160, -114],
      [326, -46],
      [191, 13],
      [111, -75],
      [740, -181],
      [492, -143],
      [416, -11],
      [98, -27],
      [328, 30],
      [310, -19],
      [82, -68],
      [-122, -50],
      [-252, -6],
      [-186, 61],
      [-193, -45],
      [-270, 3],
      [-186, -32],
      [104, -65],
      [182, 37],
      [362, -1],
      [-5, -66],
      [-183, -36],
      [-498, -4],
      [-153, 31],
      [-231, -61],
      [244, -32],
      [-188, -156],
      [6, -87],
      [158, -18],
      [186, 40],
      [45, -104],
      [336, 23],
      [189, 43],
      [556, 51],
      [321, 9],
      [315, 70],
      [91, -45],
      [-253, -107],
      [-167, -20],
      [-203, -77],
      [-289, -40],
      [271, -245],
      [64, -104],
      [392, -26],
      [-92, -152],
      [-172, -89],
      [73, -58],
      [727, -65],
      [266, 52],
      [76, 82],
      [253, 172],
      [129, 123],
      [227, 110],
      [162, 39],
      [271, 127],
      [63, 75],
      [304, -23],
      [-11, 84],
      [169, 79],
      [590, 133],
      [201, -31],
      [218, 64],
      [611, 67],
      [420, 31],
      [237, 47],
      [534, -27],
      [-20, -79],
      [161, -5],
      [263, 78],
      [92, -27],
      [115, -126],
      [-40, -71],
      [-230, -151],
      [189, -102],
      [215, 19],
      [251, 85],
      [370, 11],
      [364, 223],
      [-57, 60],
      [41, 111],
      [276, 107],
      [95, 96],
      [118, 21],
      [53, 154],
      [265, 153],
      [319, 44],
      [281, 133],
      [313, 76],
      [399, -68],
      [147, -69],
      [350, 107],
      [181, 13],
      [98, 92],
      [233, 61],
      [-117, 59],
      [106, 38],
      [280, -50],
      [425, 42],
      [118, 59],
      [150, 8],
      [303, 77],
      [514, -44],
      [-189, 62],
      [-43, 86],
      [172, 22],
      [252, -23],
      [159, 27],
      [-19, 75],
      [372, 38],
      [332, 21],
      [657, -24],
      [118, 19],
      [-72, 62],
      [-165, 0],
      [-290, 37],
      [-443, -12],
      [-102, 16],
      [-551, -65],
      [-237, 75],
      [-475, 80],
      [-46, 47],
      [133, 40],
      [-133, 40],
      [41, 43],
      [176, 27],
      [201, -13],
      [111, 27],
      [391, 178],
      [80, 57],
      [-167, 18],
      [-161, -29],
      [-48, 57],
      [142, 33],
      [-48, 105],
      [-159, -27],
      [-181, -66],
      [-92, 4],
      [-500, -78],
      [-423, 28],
      [-172, 47],
      [4, 40],
      [-320, 102],
      [-293, 45],
      [-217, 60],
      [-103, 169],
      [115, 195],
      [130, 148],
      [110, 17],
      [-10, 59],
      [118, 189],
      [270, 47],
      [-46, 90],
      [157, 158],
      [167, 51],
      [92, 80],
      [193, 25],
      [118, 82],
      [117, 36],
      [185, -36],
      [108, 28],
      [61, 123],
      [165, 54],
      [145, 19],
      [172, 61],
      [33, 85],
      [165, 80],
      [139, 16],
      [45, 69],
      [257, 109],
      [194, 23],
      [164, 55],
      [106, -2],
      [165, 73],
      [213, 8],
      [47, 79],
      [82, 11],
      [177, 86],
      [349, 53]
    ]
  ],
  "transform": {
    "scale": [0.0025528811086797955, 0.0012768217808808938],
    "translate": [-74, -90]
  },
  "objects": {
    "argentina_provincias": {
      "type": "GeometryCollection",
      "geometries": [
        {
          "arcs": [[0, 1, 2]],
          "type": "Polygon",
          "properties": {
            "nombre": "Ciudad Autónoma de Buenos Aires",
            "centroide": { "lon": -58.44588, "lat": -34.61444 }
          }
        },
        {
          "arcs": [[3, 4, 5, 6, 7]],
          "type": "Polygon",
          "properties": {
            "nombre": "Neuquén",
            "centroide": { "lon": -70.1199, "lat": -38.64198 }
          }
        },
        {
          "arcs": [[8, 9, 10, 11, 12, 13]],
          "type": "Polygon",
          "properties": {
            "nombre": "San Luis",
            "centroide": { "lon": -66.02523, "lat": -33.7611 }
          }
        },
        {
          "arcs": [[14, 15, 16, 17, 18, 19]],
          "type": "Polygon",
          "properties": {
            "nombre": "Santa Fe",
            "centroide": { "lon": -60.95069, "lat": -30.70882 }
          }
        },
        {
          "arcs": [[20, 21, 22, 23, -10, 24]],
          "type": "Polygon",
          "properties": {
            "nombre": "La Rioja",
            "centroide": { "lon": -67.18176, "lat": -29.68494 }
          }
        },
        {
          "arcs": [[-23, 25, 26, 27, 28, 29]],
          "type": "Polygon",
          "properties": {
            "nombre": "Catamarca",
            "centroide": { "lon": -66.9479, "lat": -27.33595 }
          }
        },
        {
          "arcs": [[-28, 30, 31]],
          "type": "Polygon",
          "properties": {
            "nombre": "Tucumán",
            "centroide": { "lon": -65.36477, "lat": -26.94828 }
          }
        },
        {
          "arcs": [[-15, 32, 33, 34, 35, 36, 37]],
          "type": "Polygon",
          "properties": {
            "nombre": "Chaco",
            "centroide": { "lon": -60.76512, "lat": -26.38699 }
          }
        },
        {
          "arcs": [[-36, 38]],
          "type": "Polygon",
          "properties": {
            "nombre": "Formosa",
            "centroide": { "lon": -59.93219, "lat": -24.89509 }
          }
        },
        {
          "arcs": [[39, 40]],
          "type": "Polygon",
          "properties": {
            "nombre": "Santa Cruz",
            "centroide": { "lon": -69.95576, "lat": -48.81555 }
          }
        },
        {
          "arcs": [[41, 42, -40, 43]],
          "type": "Polygon",
          "properties": {
            "nombre": "Chubut",
            "centroide": { "lon": -68.52674, "lat": -43.78863 }
          }
        },
        {
          "arcs": [[-4, -8, 44, 45, -13, 46]],
          "type": "Polygon",
          "properties": {
            "nombre": "Mendoza",
            "centroide": { "lon": -68.58295, "lat": -34.63039 }
          }
        },
        {
          "arcs": [[-17, 47, 48, 49]],
          "type": "Polygon",
          "properties": {
            "nombre": "Entre Ríos",
            "centroide": { "lon": -59.20126, "lat": -32.05893 }
          }
        },
        {
          "arcs": [[-9, -14, -46, 50, -21, -25]],
          "type": "Polygon",
          "properties": {
            "nombre": "San Juan",
            "centroide": { "lon": -68.88816, "lat": -30.86566 }
          }
        },
        {
          "arcs": [[51, 52]],
          "type": "Polygon",
          "properties": {
            "nombre": "Jujuy",
            "centroide": { "lon": -65.76442, "lat": -23.31998 }
          }
        },
        {
          "arcs": [[-33, -20, 53, -29, -32, 54]],
          "type": "Polygon",
          "properties": {
            "nombre": "Santiago del Estero",
            "centroide": { "lon": -63.25263, "lat": -27.78343 }
          }
        },
        {
          "arcs": [[55, 56, 57, -42, 58, -6, 59]],
          "type": "Polygon",
          "properties": {
            "nombre": "Río Negro",
            "centroide": { "lon": -67.22968, "lat": -40.40508 }
          }
        },
        {
          "arcs": [[[60, 61, -48, -16, -38, 62, 63]], [[64]]],
          "type": "MultiPolygon",
          "properties": {
            "nombre": "Corrientes",
            "centroide": { "lon": -57.80108, "lat": -28.7742 }
          }
        },
        {
          "arcs": [[-61, -64, 65]],
          "type": "Polygon",
          "properties": {
            "nombre": "Misiones",
            "centroide": { "lon": -54.65157, "lat": -26.8753 }
          }
        },
        {
          "arcs": [[-27, 66, -52, 67, -34, -55, -31]],
          "type": "Polygon",
          "properties": {
            "nombre": "Salta",
            "centroide": { "lon": -64.81416, "lat": -24.29928 }
          }
        },
        {
          "arcs": [[-54, -19, 68, 69, -11, -24, -30]],
          "type": "Polygon",
          "properties": {
            "nombre": "Córdoba",
            "centroide": { "lon": -63.80197, "lat": -32.1448 }
          }
        },
        {
          "arcs": [[70, -57, 71, -69, -18, -50, 72, -1, -3]],
          "type": "Polygon",
          "properties": {
            "nombre": "Buenos Aires",
            "centroide": { "lon": -60.55848, "lat": -36.67739 }
          }
        },
        {
          "arcs": [[-12, -70, -72, -56, -60, -5, -47]],
          "type": "Polygon",
          "properties": {
            "nombre": "La Pampa",
            "centroide": { "lon": -65.44764, "lat": -37.13507 }
          }
        },
        {
          "arcs": [
            [[73]],
            [[74]],
            [[75]],
            [[76]],
            [[77]],
            [[78]],
            [[79]],
            [[80]],
            [[81]],
            [[82]],
            [[83]],
            [[84]],
            [[85]],
            [[86]],
            [[87]],
            [[88]],
            [[89]],
            [[90]],
            [[91]],
            [[92]],
            [[93]],
            [[94]],
            [[95]],
            [[96]],
            [[97]],
            [[98]],
            [[99]],
            [[100]],
            [[101]],
            [[102]],
            [[103]],
            [[104]],
            [[105]],
            [[106]],
            [[107]],
            [[108]],
            [[109]],
            [[110]],
            [[111]],
            [[112]],
            [[113]],
            [[114]],
            [[115]],
            [[116]],
            [[117]],
            [[118]],
            [[119]],
            [[120]],
            [[121]],
            [[122]]
          ],
          "type": "MultiPolygon",
          "properties": {
            "nombre": "Tierra del Fuego, Antártida e Islas del Atlántico Sur",
            "centroide": { "lon": -50.74286, "lat": -82.52113 }
          }
        }
      ]
    }
  }
}
